NORAD_CAT_ID,OBJECT_NAME,OBJECT_TYPE,EPOCH,MEAN_MOTION,ECCENTRICITY,INCLINATION,RA_OF_ASC_NODE,ARG_OF_PERICENTER,MEAN_ANOMALY,BSTAR,MEAN_MOTION_DOT,MEAN_MOTION_DDOT,TLE_LINE0,TLE_LINE1,TLE_LINE2,SEMIMAJOR_AXIS,PERIOD,APOGEE,PERIGEE,DECAYED
52707.0,STARLINK-4007,PAYLOAD,2022-06-26 22:00:00,15.73219684,0.0002224,53.2159,102.396,24.7121,8.9066,-9.4703e-05,-0.00013903,0.0,0 STARLINK-4007,1 52707U 22053BD  22177.91667824 -.00013903  00000-0 -94703-4 0  9990,2 52707  53.2159 102.3960 0002224  24.7121   8.9066 15.73219684  1305,6727.839,91.532,351.2,348.208,0.0
52707.0,STARLINK-4007,PAYLOAD,2022-06-27 14:00:01,15.73170588,0.000208,53.2155,99.0962,19.4398,192.0521,0.0004489,0.00062775,0.0,0 STARLINK-4007,1 52707U 22053BD  22178.58334491  .00062775  00000-0  44890-3 0  9995,2 52707  53.2155  99.0962 0002080  19.4398 192.0521 15.73170588  6644,6727.979,91.535,351.24300000000005,348.445,0.0
52707.0,STARLINK-4007,PAYLOAD,2022-06-27 22:00:00,15.73245621,0.0002157,53.2158,97.4477,25.55,274.8518,-0.00066638,-0.00093306,0.0,0 STARLINK-4007,1 52707U 22053BD  22178.91667824 -.00093306  00000-0 -66638-3 0  9991,2 52707  53.2158  97.4477 0002157  25.5500 274.8518 15.73245621  1302,6727.765,91.531,351.081,348.17900000000014,0.0
52707.0,STARLINK-4007,PAYLOAD,2022-06-28 06:00:00,15.73155643,0.0002417,53.2157,95.7997,24.3733,4.9696,0.00056587,0.00079404,0.0,0 STARLINK-4007,1 52707U 22053BD  22179.25001157  .00079404  00000-0  56587-3 0  9993,2 52707  53.2157  95.7997 0002417  24.3733   4.9696 15.73155643  6749,6728.022,91.536,351.51300000000015,348.26,0.0
52707.0,STARLINK-4007,PAYLOAD,2022-06-28 14:00:01,15.73185844,0.0002135,53.216,94.1483,23.4895,94.7533,-0.0003377,-0.00047723,0.0,0 STARLINK-4007,1 52707U 22053BD  22179.58334491 -.00047723  00000-0 -33770-3 0  9999,2 52707  53.2160  94.1483 0002135  23.4895  94.7533 15.73185844  6790,6727.936,91.534,351.237,348.36400000000015,0.0
52707.0,STARLINK-4007,PAYLOAD,2022-06-28 22:00:00,15.73159599,0.0002206,53.216,92.4999,23.2587,183.8734,3.5737e-06,-1.2e-06,0.0,0 STARLINK-4007,1 52707U 22053BD  22179.91667824 -.00000120  00000-0  35737-5 0  9991,2 52707  53.2160  92.4999 0002206  23.2587 183.8734 15.73159599  1301,6728.01,91.536,351.36,348.391,0.0
52707.0,STARLINK-4007,PAYLOAD,2022-06-29 14:00:01,15.73164902,0.0002049,53.2154,89.2001,24.183000000000003,0.7404,0.00053136,0.00074507,0.0,0 STARLINK-4007,1 52707U 22053BD  22180.58334491  .00074507  00000-0  53136-3 0  9997,2 52707  53.2154  89.2001 0002049  24.1830   0.7404 15.73164902  1303,6727.995,91.535,351.23900000000015,348.482,0.0
52707.0,STARLINK-4007,PAYLOAD,2022-06-29 22:00:00,15.73230347,0.0002153,53.2157,87.5518,24.7881,89.0509,1.4599e-05,1.4300000000000004e-05,0.0,0 STARLINK-4007,1 52707U 22053BD  22180.91667824  .00001430  00000-0  14599-4 0  9999,2 52707  53.2157  87.5518 0002153  24.7881  89.0509 15.73230347  7004,6727.809,91.531,351.122,348.225,0.0
52707.0,STARLINK-4007,PAYLOAD,2022-06-30 14:00:01,15.7319523,0.0002199,53.2159,84.2516,28.8301,262.9535,0.0002346,0.00032426,0.0,0 STARLINK-4007,1 52707U 22053BD  22181.58334491  .00032426  00000-0  23460-3 0  9999,2 52707  53.2159  84.2516 0002199  28.8301 262.9535 15.73195230  1309,6727.909000000002,91.533,351.25300000000016,348.2940000000001,0.0
52707.0,STARLINK-4007,PAYLOAD,2022-06-30 22:00:00,15.73232391,0.0002282,53.2158,82.6034,28.235,352.4835,-0.0006593,-0.00092282,0.0,0 STARLINK-4007,1 52707U 22053BD  22181.91667824 -.00092282  00000-0 -65930-3 0  9991,2 52707  53.2158  82.6034 0002282  28.2350 352.4835 15.73232391  1304,6727.803000000001,91.531,351.20300000000015,348.1330000000001,0.0
52707.0,STARLINK-4007,PAYLOAD,2022-07-01 14:00:01,15.73162595,0.0002071,53.2151,79.3031,27.8916,170.6458,0.00050165,0.00070264,0.0,0 STARLINK-4007,1 52707U 22053BD  22182.58334491  .00070264  00000-0  50165-3 0  9994,2 52707  53.2151  79.3031 0002071  27.8916 170.6458 15.73162595  7277,6728.002,91.535,351.26,348.473,0.0
52707.0,STARLINK-4007,PAYLOAD,2022-07-01 22:00:00,15.73218382,0.0002213,53.2154,77.6552,27.9685,259.4807,-1.7705e-05,-3.108e-05,0.0,0 STARLINK-4007,1 52707U 22053BD  22182.91667824 -.00003108  00000-0 -17705-4 0  9999,2 52707  53.2154  77.6552 0002213  27.9685 259.4807 15.73218382  1309,6727.843000000003,91.532,351.19699999999995,348.219,0.0
52707.0,STARLINK-4007,PAYLOAD,2022-07-02 14:00:01,15.73246688,0.0002039,53.2155,74.3543,25.0903,80.2967,-0.00017498,-0.00025156,0.0,0 STARLINK-4007,1 52707U 22053BD  22183.58334491 -.00025156  00000-0 -17498-3 0  9999,2 52707  53.2155  74.3543 0002039  25.0903  80.2967 15.73246688  1309,6727.762,91.53,350.999,348.255,0.0
52707.0,STARLINK-4007,PAYLOAD,2022-07-02 22:00:00,15.73245842,0.0002164,53.2154,72.7061,21.7343,172.65200000000004,0.00017427,0.00023956,0.0,0 STARLINK-4007,1 52707U 22053BD  22183.91667824  .00023956  00000-0  17427-3 0  9991,2 52707  53.2154  72.7061 0002164  21.7343 172.6520 15.73245842  7482,6727.764,91.531,351.085,348.1740000000001,0.0
52707.0,STARLINK-4007,PAYLOAD,2022-07-03 14:00:01,15.73241603,0.0001943,53.2148,69.405,22.4118,349.9712,-0.00050797,-0.00071441,0.0,0 STARLINK-4007,1 52707U 22053BD  22184.58334491 -.00071441  00000-0 -50797-3 0  9997,2 52707  53.2148  69.4050 0001943  22.4118 349.9712 15.73241603  1306,6727.776999999999,91.531,350.949,348.334,0.0
52707.0,STARLINK-4007,PAYLOAD,2022-07-03 22:00:00,15.73182794,0.000217,53.215,67.7573,25.5447,75.7775,-0.00091889,-0.00127568,0.0,0 STARLINK-4007,1 52707U 22053BD  22184.91667824 -.00127568  00000-0 -91889-3 0  9992,2 52707  53.2150  67.7573 0002170  25.5447  75.7775 15.73182794  7632,6727.944,91.534,351.269,348.349,0.0
52707.0,STARLINK-4007,PAYLOAD,2022-07-04 14:00:01,15.73086609,0.0002011,53.2154,64.4566,25.0357,253.9434,0.00055741,0.0007796,0.0,0 STARLINK-4007,1 52707U 22053BD  22185.58334491  .00077960  00000-0  55741-3 0  9992,2 52707  53.2154  64.4566 0002011  25.0357 253.9434 15.73086609  7743,6728.218000000003,91.54,351.43699999999984,348.73,0.0
52707.0,STARLINK-4007,PAYLOAD,2022-07-04 22:00:00,15.73144499,0.0002172,53.2154,62.809,22.0703,345.7486,0.00083484,0.00117926,0.0,0 STARLINK-4007,1 52707U 22053BD  22185.91667824  .00117926  00000-0  83484-3 0  9990,2 52707  53.2154  62.8090 0002172  22.0703 345.7486 15.73144499  1302,6728.053000000001,91.536,351.38,348.457,0.0
52707.0,STARLINK-4007,PAYLOAD,2022-07-05 06:00:00,15.73247105,0.0002151,53.2148,61.1591,17.8895,78.8254,0.00010642,0.0001437,0.0,0 STARLINK-4007,1 52707U 22053BD  22186.25001157  .00014370  00000-0  10642-3 0  9994,2 52707  53.2148  61.1591 0002151  17.8895  78.8254 15.73247105  7844,6727.761,91.53,351.0730000000001,348.17900000000014,0.0
52707.0,STARLINK-4007,PAYLOAD,2022-07-05 14:00:01,15.73277211,0.0001904,53.215,59.5079,23.45,162.251,-0.00021792,-0.00031195,0.0,0 STARLINK-4007,1 52707U 22053BD  22186.58334491 -.00031195  00000-0 -21792-3 0  9994,2 52707  53.2150  59.5079 0001904  23.4500 162.2510 15.73277211  1309,6727.675,91.529,350.821,348.259,0.0
52707.0,STARLINK-4007,PAYLOAD,2022-07-05 22:00:00,15.73247807,0.0002129,53.2152,57.8602,22.8418,251.857,-0.00035805,-0.00050677,0.0,0 STARLINK-4007,1 52707U 22053BD  22186.91667824 -.00050677  00000-0 -35805-3 0  9996,2 52707  53.2152  57.8602 0002129  22.8418 251.8570 15.73247807  1304,6727.759,91.53,351.056,348.19199999999995,0.0
52707.0,STARLINK-4007,PAYLOAD,2022-07-06 14:00:01,15.73179372,0.0001945,53.2159,54.5589,20.994,71.5827,0.00046365,0.00064899,0.0,0 STARLINK-4007,1 52707U 22053BD  22187.58334491  .00064899  00000-0  46365-3 0  9993,2 52707  53.2159  54.5589 0001945  20.9940  71.5827 15.73179372  1306,6727.954000000002,91.534,351.12800000000016,348.51,0.0
52707.0,STARLINK-4007,PAYLOAD,2022-07-06 19:42:27,15.73196937,0.0002363,53.2162,53.3836,16.1632,343.9463,5.536300000000001e-05,7.154e-05,0.0,0 STARLINK-4007,1 52707U 22053BD  22187.82115183  .00007154  00000-0  55363-4 0  9995,2 52707  53.2162  53.3836 0002363  16.1632 343.9463 15.73196937  8587,6727.904,91.533,351.3590000000001,348.17900000000014,0.0
52707.0,STARLINK-4007,PAYLOAD,2022-07-07 14:00:01,15.73218933,0.0002101,53.2157,49.6103,30.6298,328.8202,-0.00011044,-0.00016105,0.0,0 STARLINK-4007,1 52707U 22053BD  22188.58334491 -.00016105  00000-0 -11044-3 0  9999,2 52707  53.2157  49.6103 0002101  30.6298 328.8202 15.73218933  1302,6727.840999999999,91.532,351.12,348.293,0.0
52707.0,STARLINK-4007,PAYLOAD,2022-07-07 21:37:34,15.73240439,0.0002551,53.2163,48.0394,7.7191,352.3868,-1.8816e-05,-3.267e-05,0.0,0 STARLINK-4007,1 52707U 22053BD  22188.90108973 -.00003267  00000-0 -18816-4 0  9999,2 52707  53.2163  48.0394 0002551   7.7191 352.3868 15.73240439  8752,6727.78,91.531,351.361,347.92900000000014,0.0
52707.0,STARLINK-4007,PAYLOAD,2022-07-08 14:00:01,15.733021,0.0002082,53.2164,44.6616,29.5937,236.7373,-0.00013305,-0.00019335,0.0,0 STARLINK-4007,1 52707U 22053BD  22189.58334491 -.00019335  00000-0 -13305-3 0  9990,2 52707  53.2164  44.6616 0002082  29.5937 236.7373 15.73302100  1305,6727.604,91.527,350.87,348.0680000000001,0.0
52707.0,STARLINK-4007,PAYLOAD,2022-07-08 22:00:01,15.73302588,0.0002285,53.2163,43.0139,22.9114,332.5245,-0.0003839,-0.00054396,0.0,0 STARLINK-4007,1 52707U 22053BD  22189.91668981 -.00054396  00000-0 -38390-3 0  9998,2 52707  53.2163  43.0139 0002285  22.9114 332.5245 15.73302588  1309,6727.603,91.527,351.005,347.93,0.0
52707.0,STARLINK-4007,PAYLOAD,2022-07-09 04:00:00,15.73265102,0.0002251,53.2157,41.7764,20.1591,311.9474,-0.001012,-0.00140711,0.0,0 STARLINK-4007,1 52707U 22053BD  22190.16667824 -.00140711  00000-0 -10120-2 0  9999,2 52707  53.2157  41.7764 0002251  20.1591 311.9474 15.73265102  8462,6727.71,91.529,351.089,348.06,0.0
52707.0,STARLINK-4007,PAYLOAD,2022-07-09 14:00:01,15.73147965,0.0002002,53.2161,39.713,25.8064,147.4666,-0.00082494,-0.00114589,0.0,0 STARLINK-4007,1 52707U 22053BD  22190.58334491 -.00114589  00000-0 -82494-3 0  9994,2 52707  53.2161  39.7130 0002002  25.8064 147.4666 15.73147965  1309,6728.044,91.536,351.255,348.56199999999984,0.0
